[{"OBJECT_NAME":"STARLINK-36470","OBJECT_ID":"2026-002Q","EPOCH":"2026-03-09T01:54:12.944736","MEAN_MOTION":15.27587547,"ECCENTRICITY":0.00018639,"INCLINATION":43.0005,"RA_OF_ASC_NODE":328.875,"ARG_OF_PERICENTER":264.6506,"MEAN_ANOMALY":95.4133,"EPHEMERIS_TYPE":0,"CLASSIFICATION_TYPE":"U","NORAD_CAT_ID":67319,"ELEMENT_SET_NO":999,"REV_AT_EPOCH":1104,"BSTAR":0.0013043973,"MEAN_MOTION_DOT":0.00035815,"MEAN_MOTION_DDOT":0},{"OBJECT_NAME":"ATLAS CENTAUR 2 DEB","OBJECT_ID":"1963-047H","EPOCH":"2026-03-09T12:19:05.186208","MEAN_MOTION":13.85184807,"ECCENTRICITY":0.06358941,"INCLINATION":30.4264,"RA_OF_ASC_NODE":268.0385,"ARG_OF_PERICENTER":278.88,"MEAN_ANOMALY":74.0363,"EPHEMERIS_TYPE":0,"CLASSIFICATION_TYPE":"U","NORAD_CAT_ID":739,"ELEMENT_SET_NO":999,"REV_AT_EPOCH":12755,"BSTAR":7.4246784e-5,"MEAN_MOTION_DOT":5.52e-6,"MEAN_MOTION_DDOT":0}]
